CCSDS_OMM_VERS = 2.0
CREATION_DATE  = 
ORIGINATOR     = 

OBJECT_NAME    = UNKNOWN
OBJECT_ID      = 
CENTER_NAME    = EARTH
REF_FRAME      = TEME
TIME_SYSTEM    = UTC
MEAN_ELEMENT_THEORY = SGP/SGP4

EPOCH          = 2026-03-18T15:56:43.264896
MEAN_MOTION    = 14.56698620
ECCENTRICITY   = .0131167
INCLINATION    = 98.7156
RA_OF_ASC_NODE = 144.4010
ARG_OF_PERICENTER = 190.9392
MEAN_ANOMALY   = 321.6887

EPHEMERIS_TYPE = 0
CLASSIFICATION_TYPE = U
NORAD_CAT_ID   = 81311
ELEMENT_SET_NO = 999
REV_AT_EPOCH   = 65355
BSTAR          = .14075E-3
MEAN_MOTION_DOT = .648E-5
MEAN_MOTION_DDOT = 0

CCSDS_OMM_VERS = 2.0
CREATION_DATE  = 
ORIGINATOR     = 

OBJECT_NAME    = UNKNOWN
OBJECT_ID      = 
CENTER_NAME    = EARTH
REF_FRAME      = TEME
TIME_SYSTEM    = UTC
MEAN_ELEMENT_THEORY = SGP/SGP4

EPOCH          = 2026-03-23T08:59:58.429248
MEAN_MOTION    = 13.38057829
ECCENTRICITY   = .0216876
INCLINATION    = 67.1391
RA_OF_ASC_NODE = 315.0303
ARG_OF_PERICENTER = 324.0586
MEAN_ANOMALY   = 215.5923

EPHEMERIS_TYPE = 0
CLASSIFICATION_TYPE = U
NORAD_CAT_ID   = 81317
ELEMENT_SET_NO = 999
REV_AT_EPOCH   = 60209
BSTAR          = .29156E-3
MEAN_MOTION_DOT = .112E-5
MEAN_MOTION_DDOT = 0

CCSDS_OMM_VERS = 2.0
CREATION_DATE  = 
ORIGINATOR     = 

OBJECT_NAME    = UNKNOWN
OBJECT_ID      = 
CENTER_NAME    = EARTH
REF_FRAME      = TEME
TIME_SYSTEM    = UTC
MEAN_ELEMENT_THEORY = SGP/SGP4

EPOCH          = 2026-03-20T18:37:19.545024
MEAN_MOTION    = 13.22763324
ECCENTRICITY   = .0836107
INCLINATION    = 65.8189
RA_OF_ASC_NODE = 265.8221
ARG_OF_PERICENTER = 345.5925
MEAN_ANOMALY   = 12.2519

EPHEMERIS_TYPE = 0
CLASSIFICATION_TYPE = U
NORAD_CAT_ID   = 81329
ELEMENT_SET_NO = 999
REV_AT_EPOCH   = 59104
BSTAR          = .39196E-3
MEAN_MOTION_DOT = .1053E-4
MEAN_MOTION_DDOT = 0

CCSDS_OMM_VERS = 2.0
CREATION_DATE  = 
ORIGINATOR     = 

OBJECT_NAME    = UNKNOWN
OBJECT_ID      = 
CENTER_NAME    = EARTH
REF_FRAME      = TEME
TIME_SYSTEM    = UTC
MEAN_ELEMENT_THEORY = SGP/SGP4

EPOCH          = 2026-03-23T03:05:59.055072
MEAN_MOTION    = 15.05426304
ECCENTRICITY   = .000684
INCLINATION    = 85.8752
RA_OF_ASC_NODE = 145.6642
ARG_OF_PERICENTER = 249.2260
MEAN_ANOMALY   = 110.8242

EPHEMERIS_TYPE = 0
CLASSIFICATION_TYPE = U
NORAD_CAT_ID   = 81343
ELEMENT_SET_NO = 999
REV_AT_EPOCH   = 46941
BSTAR          = .53055E-3
MEAN_MOTION_DOT = .7647E-4
MEAN_MOTION_DDOT = 0

CCSDS_OMM_VERS = 2.0
CREATION_DATE  = 
ORIGINATOR     = 

OBJECT_NAME    = UNKNOWN
OBJECT_ID      = 
CENTER_NAME    = EARTH
REF_FRAME      = TEME
TIME_SYSTEM    = UTC
MEAN_ELEMENT_THEORY = SGP/SGP4

EPOCH          = 2026-03-21T16:24:23.575680
MEAN_MOTION    = 13.79005263
ECCENTRICITY   = .0120408
INCLINATION    = 66.7992
RA_OF_ASC_NODE = 175.1417
ARG_OF_PERICENTER = 259.6991
MEAN_ANOMALY   = 99.0488

EPHEMERIS_TYPE = 0
CLASSIFICATION_TYPE = U
NORAD_CAT_ID   = 81359
ELEMENT_SET_NO = 999
REV_AT_EPOCH   = 61912
BSTAR          = .66794E-3
MEAN_MOTION_DOT = .646E-5
MEAN_MOTION_DDOT = 0

CCSDS_OMM_VERS = 2.0
CREATION_DATE  = 
ORIGINATOR     = 

OBJECT_NAME    = UNKNOWN
OBJECT_ID      = 
CENTER_NAME    = EARTH
REF_FRAME      = TEME
TIME_SYSTEM    = UTC
MEAN_ELEMENT_THEORY = SGP/SGP4

EPOCH          = 2026-03-23T14:16:15.765024
MEAN_MOTION    = 13.45406963
ECCENTRICITY   = .0713681
INCLINATION    = 65.8827
RA_OF_ASC_NODE = 193.2979
ARG_OF_PERICENTER = 32.4727
MEAN_ANOMALY   = 331.8215

EPHEMERIS_TYPE = 0
CLASSIFICATION_TYPE = U
NORAD_CAT_ID   = 81366
ELEMENT_SET_NO = 999
REV_AT_EPOCH   = 7952
BSTAR          = .22866E-3
MEAN_MOTION_DOT = .57E-5
MEAN_MOTION_DDOT = 0

CCSDS_OMM_VERS = 2.0
CREATION_DATE  = 
ORIGINATOR     = 

OBJECT_NAME    = UNKNOWN
OBJECT_ID      = 
CENTER_NAME    = EARTH
REF_FRAME      = TEME
TIME_SYSTEM    = UTC
MEAN_ELEMENT_THEORY = SGP/SGP4

EPOCH          = 2026-03-23T01:16:33.023136
MEAN_MOTION    = 14.71274014
ECCENTRICITY   = .0069208
INCLINATION    = 98.8115
RA_OF_ASC_NODE = 191.5872
ARG_OF_PERICENTER = 52.6303
MEAN_ANOMALY   = 308.1177

EPHEMERIS_TYPE = 0
CLASSIFICATION_TYPE = U
NORAD_CAT_ID   = 81371
ELEMENT_SET_NO = 999
REV_AT_EPOCH   = 65658
BSTAR          = .70653E-3
MEAN_MOTION_DOT = .4468E-4
MEAN_MOTION_DDOT = 0

CCSDS_OMM_VERS = 2.0
CREATION_DATE  = 
ORIGINATOR     = 

OBJECT_NAME    = UNKNOWN
OBJECT_ID      = 
CENTER_NAME    = EARTH
REF_FRAME      = TEME
TIME_SYSTEM    = UTC
MEAN_ELEMENT_THEORY = SGP/SGP4

EPOCH          = 2026-03-19T00:01:45.060672
MEAN_MOTION    = 12.35616900
ECCENTRICITY   = .0177293
INCLINATION    = 103.1052
RA_OF_ASC_NODE = 338.1250
ARG_OF_PERICENTER = 336.7551
MEAN_ANOMALY   = 22.5562

EPHEMERIS_TYPE = 0
CLASSIFICATION_TYPE = U
NORAD_CAT_ID   = 81390
ELEMENT_SET_NO = 999
REV_AT_EPOCH   = 51198
BSTAR          = -.19765E-2
MEAN_MOTION_DOT = -.314E-5
MEAN_MOTION_DDOT = 0

CCSDS_OMM_VERS = 2.0
CREATION_DATE  = 
ORIGINATOR     = 

OBJECT_NAME    = UNKNOWN
OBJECT_ID      = 
CENTER_NAME    = EARTH
REF_FRAME      = TEME
TIME_SYSTEM    = UTC
MEAN_ELEMENT_THEORY = SGP/SGP4

EPOCH          = 2026-03-19T06:17:49.058304
MEAN_MOTION    = 13.82363249
ECCENTRICITY   = .0041204
INCLINATION    = 100.4043
RA_OF_ASC_NODE = 81.3175
ARG_OF_PERICENTER = 144.3733
MEAN_ANOMALY   = 235.8936

EPHEMERIS_TYPE = 0
CLASSIFICATION_TYPE = U
NORAD_CAT_ID   = 81392
ELEMENT_SET_NO = 999
REV_AT_EPOCH   = 61551
BSTAR          = .22648E-2
MEAN_MOTION_DOT = .2412E-4
MEAN_MOTION_DDOT = 0

CCSDS_OMM_VERS = 2.0
CREATION_DATE  = 
ORIGINATOR     = 

OBJECT_NAME    = UNKNOWN
OBJECT_ID      = 
CENTER_NAME    = EARTH
REF_FRAME      = TEME
TIME_SYSTEM    = UTC
MEAN_ELEMENT_THEORY = SGP/SGP4

EPOCH          = 2026-03-14T21:31:57.222912
MEAN_MOTION    = 13.89179281
ECCENTRICITY   = .015752
INCLINATION    = 99.4590
RA_OF_ASC_NODE = 128.5260
ARG_OF_PERICENTER = 337.4444
MEAN_ANOMALY   = 21.9841

EPHEMERIS_TYPE = 0
CLASSIFICATION_TYPE = U
NORAD_CAT_ID   = 81405
ELEMENT_SET_NO = 999
REV_AT_EPOCH   = 57459
BSTAR          = .11126E-2
MEAN_MOTION_DOT = .1447E-4
MEAN_MOTION_DDOT = 0

CCSDS_OMM_VERS = 2.0
CREATION_DATE  = 
ORIGINATOR     = 

OBJECT_NAME    = UNKNOWN
OBJECT_ID      = 
CENTER_NAME    = EARTH
REF_FRAME      = TEME
TIME_SYSTEM    = UTC
MEAN_ELEMENT_THEORY = SGP/SGP4

EPOCH          = 2026-03-23T09:48:39.742848
MEAN_MOTION    = 14.07115987
ECCENTRICITY   = .0084788
INCLINATION    = 98.7403
RA_OF_ASC_NODE = 326.2809
ARG_OF_PERICENTER = 114.1462
MEAN_ANOMALY   = 246.8602

EPHEMERIS_TYPE = 0
CLASSIFICATION_TYPE = U
NORAD_CAT_ID   = 81427
ELEMENT_SET_NO = 999
REV_AT_EPOCH   = 56592
BSTAR          = .35277E-3
MEAN_MOTION_DOT = .568E-5
MEAN_MOTION_DDOT = 0

CCSDS_OMM_VERS = 2.0
CREATION_DATE  = 
ORIGINATOR     = 

OBJECT_NAME    = UNKNOWN
OBJECT_ID      = 
CENTER_NAME    = EARTH
REF_FRAME      = TEME
TIME_SYSTEM    = UTC
MEAN_ELEMENT_THEORY = SGP/SGP4

EPOCH          = 2026-03-21T21:55:27.001344
MEAN_MOTION    = 13.55271973
ECCENTRICITY   = .0044782
INCLINATION    = 100.3262
RA_OF_ASC_NODE = 321.9795
ARG_OF_PERICENTER = 194.6372
MEAN_ANOMALY   = 165.3469

EPHEMERIS_TYPE = 0
CLASSIFICATION_TYPE = U
NORAD_CAT_ID   = 81438
ELEMENT_SET_NO = 999
REV_AT_EPOCH   = 60537
BSTAR          = .3762E-2
MEAN_MOTION_DOT = .2571E-4
MEAN_MOTION_DDOT = 0

