UNKNOWN                 
1 81311U          26077.66438964  .00000648  00000+0  14075-3 0  9999
2 81311  98.7156 144.4010 0131167 190.9392 321.6887 14.56698620653554
UNKNOWN                 
1 81317U          26082.37498182  .00000112  00000+0  29156-3 0  9999
2 81317  67.1391 315.0303 0216876 324.0586 215.5923 13.38057829602092
UNKNOWN                 
1 81329U          26079.77592066  .00001053  00000+0  39196-3 0  9998
2 81329  65.8189 265.8221 0836107 345.5925  12.2519 13.22763324591048
UNKNOWN                 
1 81343U          26082.12915573  .00007647  00000+0  53055-3 0  9994
2 81343  85.8752 145.6642 0006840 249.2260 110.8242 15.05426304469419
UNKNOWN                 
1 81359U          26080.68360620  .00000646  00000+0  66794-3 0  9993
2 81359  66.7992 175.1417 0120408 259.6991  99.0488 13.79005263619122
UNKNOWN                 
1 81366U          26082.59462691  .00000570  00000+0  22866-3 0  9992
2 81366  65.8827 193.2979 0713681  32.4727 331.8215 13.45406963 79520
UNKNOWN                 
1 81371U          26082.05315999  .00004468  00000+0  70653-3 0  9994
2 81371  98.8115 191.5872 0069208  52.6303 308.1177 14.71274014656589
UNKNOWN                 
1 81390U          26078.00121598 -.00000314  00000+0 -19765-2 0  9999
2 81390 103.1052 338.1250 0177293 336.7551  22.5562 12.35616900511985
UNKNOWN                 
1 81392U          26078.26237336  .00002412  00000+0  22648-2 0  9990
2 81392 100.4043  81.3175 0041204 144.3733 235.8936 13.82363249615513
UNKNOWN                 
1 81405U          26073.89719008  .00001447  00000+0  11126-2 0  9996
2 81405  99.4590 128.5260 0157520 337.4444  21.9841 13.89179281574593
UNKNOWN                 
1 81427U          26082.40879332  .00000568  00000+0  35277-3 0  9991
2 81427  98.7403 326.2809 0084788 114.1462 246.8602 14.07115987565927
UNKNOWN                 
1 81438U          26080.91350696  .00002571  00000+0  37620-2 0  9993
2 81438 100.3262 321.9795 0044782 194.6372 165.3469 13.55271973605371
